start=new Date('2022-03-21T00:00:00.000Z').valueOf();
sats=[{"SITE":"AFETR","TIME_SYSTEM":"UTC","GP_ID":"199267830","LAUNCH_DATE":"2020-10-06","PERIOD":"95.592","RCS_SIZE":"LARGE","EPOCH":"2022-03-20T18:12:33.016608","MEAN_MOTION_DOT":"0.00019936","SEMIMAJOR_AXIS":"6925.332","REV_AT_EPOCH":"8124","MEAN_ELEMENT_THEORY":"SGP4","RA_OF_ASC_NODE":"185.6159","REF_FRAME":"TEME","COUNTRY_CODE":"US","ARG_OF_PERICENTER":"58.6127","PERIAPSIS":"546.073","TLE_LINE1":"1 46565U 20070AK  22079.75871547  .00019936  00000-0  13533-2 0  9994","APOAPSIS":"548.320","CLASSIFICATION_TYPE":"U","OBJECT_TYPE":"PAYLOAD","BSTAR":"0.00135330000000","MEAN_MOTION_DDOT":"0.0000000000000","NORAD_CAT_ID":"46565","MEAN_MOTION":"15.06405472","ELEMENT_SET_NO":"999","EPHEMERIS_TYPE":"0","OBJECT_ID":"2020-070AK","CENTER_NAME":"EARTH","OBJECT_NAME":"STARLINK-1735","DECAY_DATE":null,"INCLINATION":"53.0550","MEAN_ANOMALY":"301.5021","TLE_LINE2":"2 46565  53.0550 185.6159 0001622  58.6127 301.5021 15.06405472 81242","FILE":"3367488","ECCENTRICITY":"0.00016220"},{"SEMIMAJOR_AXIS":"6925.323","COUNTRY_CODE":"US","REV_AT_EPOCH":"8125","REF_FRAME":"TEME","RA_OF_ASC_NODE":"185.3727","MEAN_ELEMENT_THEORY":"SGP4","LAUNCH_DATE":"2020-10-06","TIME_SYSTEM":"UTC","SITE":"AFETR","GP_ID":"199267581","RCS_SIZE":"LARGE","MEAN_MOTION_DOT":"0.00000158","EPOCH":"2022-03-20T19:26:52.070496","PERIOD":"95.592","CENTER_NAME":"EARTH","ELEMENT_SET_NO":"999","EPHEMERIS_TYPE":"0","OBJECT_ID":"2020-070AL","TLE_LINE2":"2 46566  53.0532 185.3727 0001647  54.9388 305.1756 15.06408306 81251","FILE":"3367488","ECCENTRICITY":"0.00016470","DECAY_DATE":null,"OBJECT_NAME":"STARLINK-1740","MEAN_ANOMALY":"305.1756","INCLINATION":"53.0532","CLASSIFICATION_TYPE":"U","ARG_OF_PERICENTER":"54.9388","APOAPSIS":"548.329","TLE_LINE1":"1 46566U 20070AL  22079.81032489  .00000158  00000-0  29501-4 0  9996","PERIAPSIS":"546.048","MEAN_MOTION_DDOT":"0.0000000000000","MEAN_MOTION":"15.06408306","NORAD_CAT_ID":"46566","OBJECT_TYPE":"PAYLOAD","BSTAR":"0.00002950100000"},{"CENTER_NAME":"EARTH","EPHEMERIS_TYPE":"0","OBJECT_ID":"2020-070AM","ELEMENT_SET_NO":"999","ECCENTRICITY":"0.00014260","FILE":"3367488","TLE_LINE2":"2 46567  53.0522 185.5529 0001426  66.9276 293.1863 15.06414943 81256","MEAN_ANOMALY":"293.1863","INCLINATION":"53.0522","OBJECT_NAME":"STARLINK-1741","DECAY_DATE":null,"CLASSIFICATION_TYPE":"U","PERIAPSIS":"546.180","TLE_LINE1":"1 46567U 20070AM  22079.77345663  .00007464  00000-0  51921-3 0  9990","APOAPSIS":"548.155","ARG_OF_PERICENTER":"66.9276","NORAD_CAT_ID":"46567","MEAN_MOTION":"15.06414943","MEAN_MOTION_DDOT":"0.0000000000000","BSTAR":"0.00051921000000","OBJECT_TYPE":"PAYLOAD","SEMIMAJOR_AXIS":"6925.303","COUNTRY_CODE":"US","MEAN_ELEMENT_THEORY":"SGP4","RA_OF_ASC_NODE":"185.5529","REF_FRAME":"TEME","REV_AT_EPOCH":"8125","LAUNCH_DATE":"2020-10-06","GP_ID":"199266329","TIME_SYSTEM":"UTC","SITE":"AFETR","EPOCH":"2022-03-20T18:33:46.652832","MEAN_MOTION_DOT":"0.00007464","RCS_SIZE":"LARGE","PERIOD":"95.591"},{"ARG_OF_PERICENTER":"356.5175","TLE_LINE1":"1 46568U 20070AN  22079.69326731  .00342315  00000-0  26114-2 0  9999","PERIAPSIS":"347.660","APOAPSIS":"367.063","CLASSIFICATION_TYPE":"U","OBJECT_TYPE":"PAYLOAD","BSTAR":"0.00261140000000","MEAN_MOTION_DDOT":"0.0000000000000","MEAN_MOTION":"15.70537631","NORAD_CAT_ID":"46568","ELEMENT_SET_NO":"999","EPHEMERIS_TYPE":"0","OBJECT_ID":"2020-070AN","CENTER_NAME":"EARTH","OBJECT_NAME":"STARLINK-1743","DECAY_DATE":null,"MEAN_ANOMALY":"3.5739","INCLINATION":"53.0432","TLE_LINE2":"2 46568  53.0432 147.2131 0014403 356.5175   3.5739 15.70537631 81780","ECCENTRICITY":"0.00144030","FILE":"3367488","SITE":"AFETR","TIME_SYSTEM":"UTC","GP_ID":"199266579","LAUNCH_DATE":"2020-10-06","PERIOD":"91.688","RCS_SIZE":"LARGE","MEAN_MOTION_DOT":"0.00342315","EPOCH":"2022-03-20T16:38:18.295584","SEMIMAJOR_AXIS":"6735.496","REV_AT_EPOCH":"8178","RA_OF_ASC_NODE":"147.2131","MEAN_ELEMENT_THEORY":"SGP4","REF_FRAME":"TEME","COUNTRY_CODE":"US"},{"COUNTRY_CODE":"US","REF_FRAME":"TEME","MEAN_ELEMENT_THEORY":"SGP4","RA_OF_ASC_NODE":"185.4715","REV_AT_EPOCH":"8125","SEMIMAJOR_AXIS":"6925.303","EPOCH":"2022-03-20T18:55:00.613056","MEAN_MOTION_DOT":"0.00010116","RCS_SIZE":"LARGE","PERIOD":"95.591","LAUNCH_DATE":"2020-10-06","GP_ID":"199267331","TIME_SYSTEM":"UTC","SITE":"AFETR","ECCENTRICITY":"0.00015360","FILE":"3367488","TLE_LINE2":"2 46569  53.0538 185.4715 0001536  56.1324 303.9811 15.06414716 81259","MEAN_ANOMALY":"303.9811","INCLINATION":"53.0538","DECAY_DATE":null,"OBJECT_NAME":"STARLINK-1747","CENTER_NAME":"EARTH","EPHEMERIS_TYPE":"0","OBJECT_ID":"2020-070AP","ELEMENT_SET_NO":"999","NORAD_CAT_ID":"46569","MEAN_MOTION":"15.06414716","MEAN_MOTION_DDOT":"0.0000000000000","BSTAR":"0.00069678000000","OBJECT_TYPE":"PAYLOAD","CLASSIFICATION_TYPE":"U","APOAPSIS":"548.232","TLE_LINE1":"1 46569U 20070AP  22079.78820154  .00010116  00000-0  69678-3 0  9992","PERIAPSIS":"546.105","ARG_OF_PERICENTER":"56.1324"},{"PERIOD":"95.591","MEAN_MOTION_DOT":"0.00008057","EPOCH":"2022-03-20T16:42:19.197792","RCS_SIZE":"LARGE","GP_ID":"199268081","SITE":"AFETR","TIME_SYSTEM":"UTC","LAUNCH_DATE":"2020-10-06","MEAN_ELEMENT_THEORY":"SGP4","RA_OF_ASC_NODE":"185.8936","REF_FRAME":"TEME","REV_AT_EPOCH":"8123","COUNTRY_CODE":"US","SEMIMAJOR_AXIS":"6925.294","BSTAR":"0.00055887000000","OBJECT_TYPE":"PAYLOAD","NORAD_CAT_ID":"46570","MEAN_MOTION":"15.06417851","MEAN_MOTION_DDOT":"0.0000000000000","PERIAPSIS":"546.184","TLE_LINE1":"1 46570U 20070AQ  22079.69605553  .00008057  00000-0  55887-3 0  9996","APOAPSIS":"548.134","ARG_OF_PERICENTER":"63.8663","CLASSIFICATION_TYPE":"U","MEAN_ANOMALY":"296.2471","INCLINATION":"53.0556","OBJECT_NAME":"STARLINK-1748","DECAY_DATE":null,"ECCENTRICITY":"0.00014080","FILE":"3367488","TLE_LINE2":"2 46570  53.0556 185.8936 0001408  63.8663 296.2471 15.06417851 81236","EPHEMERIS_TYPE":"0","OBJECT_ID":"2020-070AQ","ELEMENT_SET_NO":"999","CENTER_NAME":"EARTH"},{"SEMIMAJOR_AXIS":"6711.324","MEAN_ELEMENT_THEORY":"SGP4","RA_OF_ASC_NODE":"139.7573","REF_FRAME":"TEME","REV_AT_EPOCH":"8186","COUNTRY_CODE":"US","GP_ID":"199231505","TIME_SYSTEM":"UTC","SITE":"AFETR","LAUNCH_DATE":"2020-10-06","PERIOD":"91.195","EPOCH":"2022-03-20T10:25:32.244672","MEAN_MOTION_DOT":"0.00119900","RCS_SIZE":"LARGE","EPHEMERIS_TYPE":"0","OBJECT_ID":"2020-070AR","ELEMENT_SET_NO":"999","CENTER_NAME":"EARTH","INCLINATION":"53.0490","MEAN_ANOMALY":"10.1455","OBJECT_NAME":"STARLINK-1753","DECAY_DATE":null,"FILE":"3367010","ECCENTRICITY":"0.00038990","TLE_LINE2":"2 46571  53.0490 139.7573 0003899 349.9486  10.1455 15.79030298 81866","TLE_LINE1":"1 46571U 20070AR  22079.43440098  .00119900  00000-0  65508-3 0  9991","PERIAPSIS":"330.572","APOAPSIS":"335.806","ARG_OF_PERICENTER":"349.9486","CLASSIFICATION_TYPE":"U","BSTAR":"0.00065508000000","OBJECT_TYPE":"PAYLOAD","MEAN_MOTION":"15.79030298","NORAD_CAT_ID":"46571","MEAN_MOTION_DDOT":"0.0000000000000"},{"NORAD_CAT_ID":"46572","MEAN_MOTION":"15.06396431","MEAN_MOTION_DDOT":"0.0000000000000","BSTAR":"0.00006804500000","OBJECT_TYPE":"PAYLOAD","CLASSIFICATION_TYPE":"U","APOAPSIS":"548.482","TLE_LINE1":"1 46572U 20070AS  22079.82690360  .00000732  00000-0  68045-4 0  9996","PERIAPSIS":"545.967","ARG_OF_PERICENTER":"59.7261","FILE":"3367333","ECCENTRICITY":"0.00018160","TLE_LINE2":"2 46572  53.0555 205.3175 0001816  59.7261 300.3908 15.06396431 80995","MEAN_ANOMALY":"300.3908","INCLINATION":"53.0555","DECAY_DATE":null,"OBJECT_NAME":"STARLINK-1531","CENTER_NAME":"EARTH","EPHEMERIS_TYPE":"0","OBJECT_ID":"2020-070AS","ELEMENT_SET_NO":"999","MEAN_MOTION_DOT":"0.00000732","EPOCH":"2022-03-20T19:50:44.471040","RCS_SIZE":"LARGE","PERIOD":"95.592","LAUNCH_DATE":"2020-10-06","GP_ID":"199242395","TIME_SYSTEM":"UTC","SITE":"AFETR","COUNTRY_CODE":"US","REF_FRAME":"TEME","RA_OF_ASC_NODE":"205.3175","MEAN_ELEMENT_THEORY":"SGP4","REV_AT_EPOCH":"8099","SEMIMAJOR_AXIS":"6925.359"},{"COUNTRY_CODE":"US","REF_FRAME":"TEME","MEAN_ELEMENT_THEORY":"SGP4","RA_OF_ASC_NODE":"191.2914","REV_AT_EPOCH":"8115","SEMIMAJOR_AXIS":"6925.341","MEAN_MOTION_DOT":"0.00001832","EPOCH":"2022-03-20T14:31:36.588576","RCS_SIZE":"LARGE","PERIOD":"95.592","LAUNCH_DATE":"2020-10-06","GP_ID":"199267831","SITE":"AFETR","TIME_SYSTEM":"UTC","ECCENTRICITY":"0.00014360","FILE":"3367488","TLE_LINE2":"2 46573  53.0538 191.2914 0001436  65.3820 294.7318 15.06402572 81157","MEAN_ANOMALY":"294.7318","INCLINATION":"53.0538","DECAY_DATE":null,"OBJECT_NAME":"STARLINK-1650","CENTER_NAME":"EARTH","EPHEMERIS_TYPE":"0","OBJECT_ID":"2020-070AT","ELEMENT_SET_NO":"999","NORAD_CAT_ID":"46573","MEAN_MOTION":"15.06402572","MEAN_MOTION_DDOT":"0.0000000000000","BSTAR":"0.00014185000000","OBJECT_TYPE":"PAYLOAD","CLASSIFICATION_TYPE":"U","APOAPSIS":"548.200","TLE_LINE1":"1 46573U 20070AT  22079.60528459  .00001832  00000-0  14185-3 0  9999","PERIAPSIS":"546.211","ARG_OF_PERICENTER":"65.3820"},{"BSTAR":"-0.00009858700000","OBJECT_TYPE":"PAYLOAD","MEAN_MOTION":"15.06408291","NORAD_CAT_ID":"46574","MEAN_MOTION_DDOT":"0.0000000000000","PERIAPSIS":"546.189","TLE_LINE1":"1 46574U 20070AU  22079.78958472 -.00001750  00000-0 -98587-4 0  9991","APOAPSIS":"548.187","ARG_OF_PERICENTER":"70.5349","CLASSIFICATION_TYPE":"U","MEAN_ANOMALY":"289.5795","INCLINATION":"53.0546","OBJECT_NAME":"STARLINK-1660","DECAY_DATE":null,"FILE":"3367488","ECCENTRICITY":"0.00014430","TLE_LINE2":"2 46574  53.0546 190.4756 0001443  70.5349 289.5795 15.06408291 81182","OBJECT_ID":"2020-070AU","EPHEMERIS_TYPE":"0","ELEMENT_SET_NO":"999","CENTER_NAME":"EARTH","PERIOD":"95.592","MEAN_MOTION_DOT":"-0.00001750","EPOCH":"2022-03-20T18:57:00.119808","RCS_SIZE":"LARGE","GP_ID":"199267582","SITE":"AFETR","TIME_SYSTEM":"UTC","LAUNCH_DATE":"2020-10-06","RA_OF_ASC_NODE":"190.4756","MEAN_ELEMENT_THEORY":"SGP4","REF_FRAME":"TEME","REV_AT_EPOCH":"8118","COUNTRY_CODE":"US","SEMIMAJOR_AXIS":"6925.323"}];
